{"fetched_at":"2026-07-15T06:35:30.786Z","source":"https://celestrak.org/NORAD/elements/gp.php?GROUP=kuiper&FORMAT=JSON","constellation":"kuiper","records":[{"OBJECT_NAME":"KUIPER-00153","OBJECT_ID":"2025-217M","EPOCH":"2026-07-14T09:18:54.622080","CLASSIFICATION_TYPE":"U","MEAN_MOTION":14.79941229,"ECCENTRICITY":0.00005675,"INCLINATION":51.9019,"RA_OF_ASC_NODE":185.4163,"ARG_OF_PERICENTER":68.6239,"MEAN_ANOMALY":291.4784,"EPHEMERIS_TYPE":0,"NORAD_CAT_ID":65773,"ELEMENT_SET_NO":999,"REV_AT_EPOCH":4388,"BSTAR":0.00018880404,"MEAN_MOTION_DOT":0.00001219,"MEAN_MOTION_DDOT":0},{"OBJECT_NAME":"KUIPER-00155","OBJECT_ID":"2025-217N","EPOCH":"2026-07-14T06:47:09.902400","CLASSIFICATION_TYPE":"U","MEAN_MOTION":14.79931054,"ECCENTRICITY":0.00006879,"INCLINATION":51.9012,"RA_OF_ASC_NODE":158.3443,"ARG_OF_PERICENTER":69.1615,"MEAN_ANOMALY":290.9421,"EPHEMERIS_TYPE":0,"NORAD_CAT_ID":65774,"ELEMENT_SET_NO":999,"REV_AT_EPOCH":4425,"BSTAR":0.00021689994,"MEAN_MOTION_DOT":0.00001433,"MEAN_MOTION_DDOT":0},{"OBJECT_NAME":"KUIPER-00156","OBJECT_ID":"2025-217P","EPOCH":"2026-07-14T23:05:32.502336","CLASSIFICATION_TYPE":"U","MEAN_MOTION":14.79927857,"ECCENTRICITY":0.00003808,"INCLINATION":51.9018,"RA_OF_ASC_NODE":182.8589,"ARG_OF_PERICENTER":92.1093,"MEAN_ANOMALY":267.9913,"EPHEMERIS_TYPE":0,"NORAD_CAT_ID":65775,"ELEMENT_SET_NO":999,"REV_AT_EPOCH":4396,"BSTAR":0.00017403583,"MEAN_MOTION_DOT":0.00001106,"MEAN_MOTION_DDOT":0},{"OBJECT_NAME":"KUIPER-00163","OBJECT_ID":"2025-217R","EPOCH":"2026-07-14T22:24:36.509760","CLASSIFICATION_TYPE":"U","MEAN_MOTION":16.05396971,"ECCENTRICITY":0.00022439,"INCLINATION":51.8734,"RA_OF_ASC_NODE":119.2112,"ARG_OF_PERICENTER":117.4853,"MEAN_ANOMALY":242.6391,"EPHEMERIS_TYPE":0,"NORAD_CAT_ID":65777,"ELEMENT_SET_NO":999,"REV_AT_EPOCH":4483,"BSTAR":0.00062328442,"MEAN_MOTION_DOT":0.00448822,"MEAN_MOTION_DDOT":0.0001050894},{"OBJECT_NAME":"KUIPER-00165","OBJECT_ID":"2025-217S","EPOCH":"2026-07-14T09:51:58.746240","CLASSIFICATION_TYPE":"U","MEAN_MOTION":14.79936732,"ECCENTRICITY":0.00004971,"INCLINATION":51.8999,"RA_OF_ASC_NODE":195.2415,"ARG_OF_PERICENTER":81.2625,"MEAN_ANOMALY":278.8394,"EPHEMERIS_TYPE":0,"NORAD_CAT_ID":65778,"ELEMENT_SET_NO":999,"REV_AT_EPOCH":4374,"BSTAR":0.00017521388,"MEAN_MOTION_DOT":0.00001115,"MEAN_MOTION_DDOT":0},{"OBJECT_NAME":"KUIPER-00166","OBJECT_ID":"2025-217T","EPOCH":"2026-07-14T07:45:36.002304","CLASSIFICATION_TYPE":"U","MEAN_MOTION":14.79930574,"ECCENTRICITY":0.0000537,"INCLINATION":51.9016,"RA_OF_ASC_NODE":183.179,"ARG_OF_PERICENTER":64.6693,"MEAN_ANOMALY":295.4325,"EPHEMERIS_TYPE":0,"NORAD_CAT_ID":65779,"ELEMENT_SET_NO":999,"REV_AT_EPOCH":4390,"BSTAR":0.00020264202,"MEAN_MOTION_DOT":0.00001324,"MEAN_MOTION_DDOT":0},{"OBJECT_NAME":"KUIPER-00167","OBJECT_ID":"2025-217U","EPOCH":"2026-07-14T12:50:54.245184","CLASSIFICATION_TYPE":"U","MEAN_MOTION":14.79934425,"ECCENTRICITY":0.0000508,"INCLINATION":51.8952,"RA_OF_ASC_NODE":204.6022,"ARG_OF_PERICENTER":64.3385,"MEAN_ANOMALY":295.763,"EPHEMERIS_TYPE":0,"NORAD_CAT_ID":65780,"ELEMENT_SET_NO":999,"REV_AT_EPOCH":4362,"BSTAR":0.00017776,"MEAN_MOTION_DOT":0.00001134,"MEAN_MOTION_DDOT":0},{"OBJECT_NAME":"KUIPER-00168","OBJECT_ID":"2025-217V","EPOCH":"2026-07-14T23:01:39.119520","CLASSIFICATION_TYPE":"U","MEAN_MOTION":14.79926885,"ECCENTRICITY":0.00005481,"INCLINATION":51.8998,"RA_OF_ASC_NODE":185.3214,"ARG_OF_PERICENTER":65.3017,"MEAN_ANOMALY":294.8002,"EPHEMERIS_TYPE":0,"NORAD_CAT_ID":65781,"ELEMENT_SET_NO":999,"REV_AT_EPOCH":4393,"BSTAR":0.00018642377,"MEAN_MOTION_DOT":0.000012,"MEAN_MOTION_DDOT":0},{"OBJECT_NAME":"KUIPER-00169","OBJECT_ID":"2025-217W","EPOCH":"2026-07-14T22:53:49.727328","CLASSIFICATION_TYPE":"U","MEAN_MOTION":14.79953783,"ECCENTRICITY":0.00003248,"INCLINATION":51.8961,"RA_OF_ASC_NODE":190.3528,"ARG_OF_PERICENTER":166.9966,"MEAN_ANOMALY":193.1005,"EPHEMERIS_TYPE":0,"NORAD_CAT_ID":65782,"ELEMENT_SET_NO":999,"REV_AT_EPOCH":4386,"BSTAR":0.00044928315,"MEAN_MOTION_DOT":0.00003207,"MEAN_MOTION_DDOT":0},{"OBJECT_NAME":"KUIPER-00170","OBJECT_ID":"2025-217X","EPOCH":"2026-07-14T11:25:23.854656","CLASSIFICATION_TYPE":"U","MEAN_MOTION":14.79927614,"ECCENTRICITY":0.00005105,"INCLINATION":51.8984,"RA_OF_ASC_NODE":197.4272,"ARG_OF_PERICENTER":65.4309,"MEAN_ANOMALY":294.6707,"EPHEMERIS_TYPE":0,"NORAD_CAT_ID":65783,"ELEMENT_SET_NO":999,"REV_AT_EPOCH":4372,"BSTAR":0.00017233353,"MEAN_MOTION_DOT":0.00001093,"MEAN_MOTION_DDOT":0},{"OBJECT_NAME":"KUIPER-00172","OBJECT_ID":"2025-217Z","EPOCH":"2026-07-14T07:49:28.018272","CLASSIFICATION_TYPE":"U","MEAN_MOTION":14.7993464,"ECCENTRICITY":0.00008339,"INCLINATION":51.8987,"RA_OF_ASC_NODE":180.6194,"ARG_OF_PERICENTER":88.6783,"MEAN_ANOMALY":271.4274,"EPHEMERIS_TYPE":0,"NORAD_CAT_ID":65785,"ELEMENT_SET_NO":999,"REV_AT_EPOCH":4394,"BSTAR":0.00018992472,"MEAN_MOTION_DOT":0.00001227,"MEAN_MOTION_DDOT":0},{"OBJECT_NAME":"KUIPER-00173","OBJECT_ID":"2025-217AA","EPOCH":"2026-07-14T10:44:27.645216","CLASSIFICATION_TYPE":"U","MEAN_MOTION":14.79939168,"ECCENTRICITY":0.00003307,"INCLINATION":51.9,"RA_OF_ASC_NODE":192.5892,"ARG_OF_PERICENTER":78.5105,"MEAN_ANOMALY":281.5894,"EPHEMERIS_TYPE":0,"NORAD_CAT_ID":65786,"ELEMENT_SET_NO":999,"REV_AT_EPOCH":4378,"BSTAR":0.000094664241,"MEAN_MOTION_DOT":0.00000501,"MEAN_MOTION_DDOT":0},{"OBJECT_NAME":"KUIPER-00174","OBJECT_ID":"2025-217AB","EPOCH":"2026-07-14T09:15:01.669536","CLASSIFICATION_TYPE":"U","MEAN_MOTION":14.79938975,"ECCENTRICITY":0.00005659,"INCLINATION":51.9001,"RA_OF_ASC_NODE":187.914,"ARG_OF_PERICENTER":59.8829,"MEAN_ANOMALY":300.2189,"EPHEMERIS_TYPE":0,"NORAD_CAT_ID":65787,"ELEMENT_SET_NO":999,"REV_AT_EPOCH":4384,"BSTAR":0.00030636208,"MEAN_MOTION_DOT":0.00002115,"MEAN_MOTION_DDOT":0},{"OBJECT_NAME":"KUIPER-00176","OBJECT_ID":"2025-217AC","EPOCH":"2026-07-14T07:14:29.988672","CLASSIFICATION_TYPE":"U","MEAN_MOTION":14.79924304,"ECCENTRICITY":0.00004473,"INCLINATION":51.8991,"RA_OF_ASC_NODE":203.2185,"ARG_OF_PERICENTER":73.4209,"MEAN_ANOMALY":286.6802,"EPHEMERIS_TYPE":0,"NORAD_CAT_ID":65788,"ELEMENT_SET_NO":999,"REV_AT_EPOCH":4362,"BSTAR":0.00016306395,"MEAN_MOTION_DOT":0.00001022,"MEAN_MOTION_DDOT":0},{"OBJECT_NAME":"KUIPER-00101","OBJECT_ID":"2025-228A","EPOCH":"2026-07-14T07:31:52.770144","CLASSIFICATION_TYPE":"U","MEAN_MOTION":14.79927339,"ECCENTRICITY":0.0000708,"INCLINATION":51.8978,"RA_OF_ASC_NODE":160.6222,"ARG_OF_PERICENTER":72.9446,"MEAN_ANOMALY":287.1594,"EPHEMERIS_TYPE":0,"NORAD_CAT_ID":65947,"ELEMENT_SET_NO":999,"REV_AT_EPOCH":4198,"BSTAR":0.00022171635,"MEAN_MOTION_DOT":0.00001469,"MEAN_MOTION_DDOT":0},{"OBJECT_NAME":"KUIPER-00113","OBJECT_ID":"2025-228B","EPOCH":"2026-07-14T06:51:01.609056","CLASSIFICATION_TYPE":"U","MEAN_MOTION":14.79935726,"ECCENTRICITY":0.00007001,"INCLINATION":51.898,"RA_OF_ASC_NODE":155.7677,"ARG_OF_PERICENTER":71.9149,"MEAN_ANOMALY":288.189,"EPHEMERIS_TYPE":0,"NORAD_CAT_ID":65948,"ELEMENT_SET_NO":999,"REV_AT_EPOCH":4204,"BSTAR":0.00019218049,"MEAN_MOTION_DOT":0.00001244,"MEAN_MOTION_DDOT":0}]}
