KUIPER-00153            
1 65773U 25217M   26195.38813220  .00001219  00000+0  18880-3 0  9995
2 65773  51.9019 185.4163 0000567  68.6239 291.4784 14.79941229 43881
KUIPER-00155            
1 65774U 25217N   26195.28275350  .00001433  00000+0  21690-3 0  9992
2 65774  51.9012 158.3443 0000687  69.1615 290.9421 14.79931054 44251
KUIPER-00156            
1 65775U 25217P   26195.96218174  .00001106  00000+0  17404-3 0  9994
2 65775  51.9018 182.8589 0000380  92.1093 267.9913 14.79927857 43960
KUIPER-00163            
1 65777U 25217R   26195.93375590  .00448822  10509-3  62328-3 0  9993
2 65777  51.8734 119.2112 0002243 117.4853 242.6391 16.05396971 44832
KUIPER-00165            
1 65778U 25217S   26195.41109660  .00001115  00000+0  17521-3 0  9996
2 65778  51.8999 195.2415 0000497  81.2625 278.8394 14.79936732 43747
KUIPER-00166            
1 65779U 25217T   26195.32333336  .00001324  00000+0  20264-3 0  9996
2 65779  51.9016 183.1790 0000537  64.6693 295.4325 14.79930574 43901
KUIPER-00167            
1 65780U 25217U   26195.53535006  .00001134  00000+0  17776-3 0  9992
2 65780  51.8952 204.6022 0000508  64.3385 295.7630 14.79934425 43621
KUIPER-00168            
1 65781U 25217V   26195.95948055  .00001200  00000+0  18642-3 0  9998
2 65781  51.8998 185.3214 0000548  65.3017 294.8002 14.79926885 43935
KUIPER-00169            
1 65782U 25217W   26195.95404777  .00003207  00000+0  44928-3 0  9992
2 65782  51.8961 190.3528 0000324 166.9966 193.1005 14.79953783 43866
KUIPER-00170            
1 65783U 25217X   26195.47597054  .00001093  00000+0  17233-3 0  9991
2 65783  51.8984 197.4272 0000510  65.4309 294.6707 14.79927614 43722
KUIPER-00172            
1 65785U 25217Z   26195.32601873  .00001227  00000+0  18992-3 0  9994
2 65785  51.8987 180.6194 0000833  88.6783 271.4274 14.79934640 43948
KUIPER-00173            
1 65786U 25217AA  26195.44754219  .00000501  00000+0  94664-4 0  9996
2 65786  51.9000 192.5892 0000330  78.5105 281.5894 14.79939168 43783
KUIPER-00174            
1 65787U 25217AB  26195.38543599  .00002115  00000+0  30636-3 0  9998
2 65787  51.9001 187.9140 0000565  59.8829 300.2189 14.79938975 43842
KUIPER-00176            
1 65788U 25217AC  26195.30173598  .00001022  00000+0  16306-3 0  9993
2 65788  51.8991 203.2185 0000447  73.4209 286.6802 14.79924304 43620
KUIPER-00101            
1 65947U 25228A   26195.31380521  .00001469  00000+0  22172-3 0  9992
2 65947  51.8978 160.6222 0000708  72.9446 287.1594 14.79927339 41989
KUIPER-00113            
1 65948U 25228B   26195.28543529  .00001244  00000+0  19218-3 0  9996
2 65948  51.8980 155.7677 0000700  71.9149 288.1890 14.79935726 42040
